{
  "type": "FeatureCollection",
  "features": [
    {
      "type": "Feature",
      "properties": {
        "norad_id": 34556,
        "name": "COSMOS 2251 DEB",
        "group": "cosmos-2251-debris",
        "lat": -71.8321709893374,
        "lon": -1.8195512324887073,
        "alt_km": 642.2944836676897,
        "timestamp": "2025-12-16T13:52:37.916726+00:00",
        "meta_object_name": "COSMOS 2251 DEB",
        "meta_object_id": "1993-036US",
        "meta_epoch": "2025-12-15T19:30:33.217344",
        "meta_mean_motion": 14.77908385,
        "meta_eccentricity": 0.00073808,
        "meta_inclination": 74.0151,
        "meta_ra_of_asc_node": 118.8149,
        "meta_arg_of_pericenter": 178.752,
        "meta_mean_anomaly": 332.1625,
        "meta_ephemeris_type": 0,
        "meta_classification_type": "U",
        "meta_norad_cat_id": 34556,
        "meta_element_set_no": 999,
        "meta_rev_at_epoch": 88374,
        "meta_bstar": 0.0015348237,
        "meta_mean_motion_dot": 0.00011042,
        "meta_mean_motion_ddot": 0,
        "tle_line1": "1 34556U 93036US  25349.81288446  .00011042  00000+0  15348-2 0  9998",
        "tle_line2": "2 34556  74.0151 118.8149 0007380 178.7520 332.1625 14.77908385883747"
      },
      "geometry": {
        "type": "Point",
        "coordinates": [
          -1.8195512324887073,
          -71.8321709893374
        ]
      }
    },
    {
      "type": "Feature",
      "properties": {
        "norad_id": 34560,
        "name": "COSMOS 2251 DEB",
        "group": "cosmos-2251-debris",
        "lat": 68.92277813807195,
        "lon": -177.29331367608134,
        "alt_km": 654.6614628843854,
        "timestamp": "2025-12-16T13:52:37.916736+00:00",
        "meta_object_name": "COSMOS 2251 DEB",
        "meta_object_id": "1993-036UW",
        "meta_epoch": "2025-12-15T11:43:43.465728",
        "meta_mean_motion": 14.72218011,
        "meta_eccentricity": 0.00144602,
        "meta_inclination": 74.0153,
        "meta_ra_of_asc_node": 136.7768,
        "meta_arg_of_pericenter": 218.4433,
        "meta_mean_anomaly": 205.7024,
        "meta_ephemeris_type": 0,
        "meta_classification_type": "U",
        "meta_norad_cat_id": 34560,
        "meta_element_set_no": 999,
        "meta_rev_at_epoch": 88292,
        "meta_bstar": 0.0014340405,
        "meta_mean_motion_dot": 9.042e-05,
        "meta_mean_motion_ddot": 0,
        "tle_line1": "1 34560U 93036UW  25349.48869752  .00009042  00000+0  14340-2 0  9999",
        "tle_line2": "2 34560  74.0153 136.7768 0014460 218.4433 205.7024 14.72218011882924"
      },
      "geometry": {
        "type": "Point",
        "coordinates": [
          -177.29331367608134,
          68.92277813807195
        ]
      }
    },
    {
      "type": "Feature",
      "properties": {
        "norad_id": 34563,
        "name": "COSMOS 2251 DEB",
        "group": "cosmos-2251-debris",
        "lat": -25.568670845768324,
        "lon": 24.413175484997268,
        "alt_km": 741.1981204788563,
        "timestamp": "2025-12-16T13:52:37.916746+00:00",
        "meta_object_name": "COSMOS 2251 DEB",
        "meta_object_id": "1993-036UZ",
        "meta_epoch": "2025-12-15T20:23:57.119424",
        "meta_mean_motion": 14.46520513,
        "meta_eccentricity": 0.0013881,
        "meta_inclination": 74.0378,
        "meta_ra_of_asc_node": 197.9015,
        "meta_arg_of_pericenter": 291.7364,
        "meta_mean_anomaly": 84.1833,
        "meta_ephemeris_type": 0,
        "meta_classification_type": "U",
        "meta_norad_cat_id": 34563,
        "meta_element_set_no": 999,
        "meta_rev_at_epoch": 88242,
        "meta_bstar": 0.0003416442,
        "meta_mean_motion_dot": 1.205e-05,
        "meta_mean_motion_ddot": 0,
        "tle_line1": "1 34563U 93036UZ  25349.84996666  .00001205  00000+0  34164-3 0  9997",
        "tle_line2": "2 34563  74.0378 197.9015 0013881 291.7364  84.1833 14.46520513882429"
      },
      "geometry": {
        "type": "Point",
        "coordinates": [
          24.413175484997268,
          -25.568670845768324
        ]
      }
    },
    {
      "type": "Feature",
      "properties": {
        "norad_id": 34564,
        "name": "COSMOS 2251 DEB",
        "group": "cosmos-2251-debris",
        "lat": -73.28017114648753,
        "lon": 123.30957698857895,
        "alt_km": 758.2874627221618,
        "timestamp": "2025-12-16T13:52:37.916756+00:00",
        "meta_object_name": "COSMOS 2251 DEB",
        "meta_object_id": "1993-036VA",
        "meta_epoch": "2025-12-15T18:36:30.683232",
        "meta_mean_motion": 14.40695707,
        "meta_eccentricity": 0.00191407,
        "meta_inclination": 74.0319,
        "meta_ra_of_asc_node": 232.3956,
        "meta_arg_of_pericenter": 335.905,
        "meta_mean_anomaly": 86.9329,
        "meta_ephemeris_type": 0,
        "meta_classification_type": "U",
        "meta_norad_cat_id": 34564,
        "meta_element_set_no": 999,
        "meta_rev_at_epoch": 88050,
        "meta_bstar": 0.00024727161,
        "meta_mean_motion_dot": 7.65e-06,
        "meta_mean_motion_ddot": 0,
        "tle_line1": "1 34564U 93036VA  25349.77535513  .00000765  00000+0  24727-3 0  9994",
        "tle_line2": "2 34564  74.0319 232.3956 0019140 335.9050  86.9329 14.40695707880509"
      },
      "geometry": {
        "type": "Point",
        "coordinates": [
          123.30957698857895,
          -73.28017114648753
        ]
      }
    },
    {
      "type": "Feature",
      "properties": {
        "norad_id": 34567,
        "name": "COSMOS 2251 DEB",
        "group": "cosmos-2251-debris",
        "lat": 71.4632098649726,
        "lon": -151.54043388026201,
        "alt_km": 846.9884313771945,
        "timestamp": "2025-12-16T13:52:37.916767+00:00",
        "meta_object_name": "COSMOS 2251 DEB",
        "meta_object_id": "1993-036VD",
        "meta_epoch": "2025-12-15T21:11:22.200576",
        "meta_mean_motion": 14.24020047,
        "meta_eccentricity": 0.00743597,
        "meta_inclination": 74.0404,
        "meta_ra_of_asc_node": 151.1232,
        "meta_arg_of_pericenter": 224.6985,
        "meta_mean_anomaly": 253.173,
        "meta_ephemeris_type": 0,
        "meta_classification_type": "U",
        "meta_norad_cat_id": 34567,
        "meta_element_set_no": 999,
        "meta_rev_at_epoch": 87169,
        "meta_bstar": 0.00023108299,
        "meta_mean_motion_dot": 5.2e-06,
        "meta_mean_motion_ddot": 0,
        "tle_line1": "1 34567U 93036VD  25349.88289584  .00000520  00000+0  23108-3 0  9994",
        "tle_line2": "2 34567  74.0404 151.1232 0074359 224.6985 253.1730 14.24020047871691"
      },
      "geometry": {
        "type": "Point",
        "coordinates": [
          -151.54043388026201,
          71.4632098649726
        ]
      }
    },
    {
      "type": "Feature",
      "properties": {
        "norad_id": 34569,
        "name": "COSMOS 2251 DEB",
        "group": "cosmos-2251-debris",
        "lat": -68.8332154304804,
        "lon": 59.05856575997783,
        "alt_km": 876.1858929074524,
        "timestamp": "2025-12-16T13:52:37.916777+00:00",
        "meta_object_name": "COSMOS 2251 DEB",
        "meta_object_id": "1993-036VF",
        "meta_epoch": "2025-12-15T13:12:52.587360",
        "meta_mean_motion": 14.24759676,
        "meta_eccentricity": 0.01574326,
        "meta_inclination": 73.9894,
        "meta_ra_of_asc_node": 193.0536,
        "meta_arg_of_pericenter": 20.8073,
        "meta_mean_anomaly": 8.0158,
        "meta_ephemeris_type": 0,
        "meta_classification_type": "U",
        "meta_norad_cat_id": 34569,
        "meta_element_set_no": 999,
        "meta_rev_at_epoch": 87008,
        "meta_bstar": 0.00047618814,
        "meta_mean_motion_dot": 1.236e-05,
        "meta_mean_motion_ddot": 0,
        "tle_line1": "1 34569U 93036VF  25349.55060865  .00001236  00000+0  47619-3 0  9997",
        "tle_line2": "2 34569  73.9894 193.0536 0157432  20.8073   8.0158 14.24759676870084"
      },
      "geometry": {
        "type": "Point",
        "coordinates": [
          59.05856575997783,
          -68.8332154304804
        ]
      }
    },
    {
      "type": "Feature",
      "properties": {
        "norad_id": 34570,
        "name": "COSMOS 2251 DEB",
        "group": "cosmos-2251-debris",
        "lat": -24.85756345882171,
        "lon": 39.26853032135966,
        "alt_km": 950.424417642892,
        "timestamp": "2025-12-16T13:52:37.916787+00:00",
        "meta_object_name": "COSMOS 2251 DEB",
        "meta_object_id": "1993-036VG",
        "meta_epoch": "2025-12-15T01:35:48.543648",
        "meta_mean_motion": 13.99823242,
        "meta_eccentricity": 0.01902617,
        "meta_inclination": 73.9569,
        "meta_ra_of_asc_node": 214.2362,
        "meta_arg_of_pericenter": 96.2089,
        "meta_mean_anomaly": 52.6208,
        "meta_ephemeris_type": 0,
        "meta_classification_type": "U",
        "meta_norad_cat_id": 34570,
        "meta_element_set_no": 999,
        "meta_rev_at_epoch": 85633,
        "meta_bstar": 0.00050503358,
        "meta_mean_motion_dot": 8.43e-06,
        "meta_mean_motion_ddot": 0,
        "tle_line1": "1 34570U 93036VG  25349.06653407  .00000843  00000+0  50503-3 0  9994",
        "tle_line2": "2 34570  73.9569 214.2362 0190261  96.2089  52.6208 13.99823242856334"
      },
      "geometry": {
        "type": "Point",
        "coordinates": [
          39.26853032135966,
          -24.85756345882171
        ]
      }
    }
  ]
}